TYVAK-182A              
1 48271U 21034D   26068.71131789  .00007163  00000+0  50673-3 0  9991
2 48271  97.5843 129.3711 0004862 316.5650  43.5193 15.05150420264864
STARLINK-2524           
1 48304U 21036AE  26068.38380563  .00003368  00000+0  24488-3 0  9997
2 48304  53.0546  92.9921 0001158  85.2910 274.8212 15.06399211268128
