[{"OBJECT_NAME":"TYVAK-182A","OBJECT_ID":"2021-034D","EPOCH":"2026-03-09T17:04:17.866560","MEAN_MOTION":15.0515042,"ECCENTRICITY":0.00048625,"INCLINATION":97.5843,"RA_OF_ASC_NODE":129.3711,"ARG_OF_PERICENTER":316.565,"MEAN_ANOMALY":43.5193,"EPHEMERIS_TYPE":0,"CLASSIFICATION_TYPE":"U","NORAD_CAT_ID":48271,"ELEMENT_SET_NO":999,"REV_AT_EPOCH":26486,"BSTAR":0.00050672592,"MEAN_MOTION_DOT":7.163e-5,"MEAN_MOTION_DDOT":0},{"OBJECT_NAME":"STARLINK-2524","OBJECT_ID":"2021-036AE","EPOCH":"2026-03-09T09:12:40.806432","MEAN_MOTION":15.06399211,"ECCENTRICITY":0.00011587,"INCLINATION":53.0546,"RA_OF_ASC_NODE":92.9921,"ARG_OF_PERICENTER":85.291,"MEAN_ANOMALY":274.8212,"EPHEMERIS_TYPE":0,"CLASSIFICATION_TYPE":"U","NORAD_CAT_ID":48304,"ELEMENT_SET_NO":999,"REV_AT_EPOCH":26812,"BSTAR":0.00024487552,"MEAN_MOTION_DOT":3.368e-5,"MEAN_MOTION_DDOT":0}]
